[{"OBJECT_NAME":"STARLINK-35287","OBJECT_ID":"2025-216W","EPOCH":"2026-01-04T02:59:26.842272","MEAN_MOTION":15.30164895,"ECCENTRICITY":0.00014548,"INCLINATION":53.1612,"RA_OF_ASC_NODE":272.4135,"ARG_OF_PERICENTER":78.9761,"MEAN_ANOMALY":281.1403,"EPHEMERIS_TYPE":0,"CLASSIFICATION_TYPE":"U","NORAD_CAT_ID":65754,"ELEMENT_SET_NO":999,"REV_AT_EPOCH":1662,"BSTAR":0.0012923541,"MEAN_MOTION_DOT":0.00038071,"MEAN_MOTION_DDOT":0},{"OBJECT_NAME":"STARLINK-35294","OBJECT_ID":"2025-216X","EPOCH":"2026-01-04T00:01:58.387008","MEAN_MOTION":15.301833,"ECCENTRICITY":0.0001443,"INCLINATION":53.16,"RA_OF_ASC_NODE":273.0697,"ARG_OF_PERICENTER":68.9041,"MEAN_ANOMALY":291.2114,"EPHEMERIS_TYPE":0,"CLASSIFICATION_TYPE":"U","NORAD_CAT_ID":65755,"ELEMENT_SET_NO":999,"REV_AT_EPOCH":1664,"BSTAR":0.00098269,"MEAN_MOTION_DOT":0.00028843,"MEAN_MOTION_DDOT":0},{"OBJECT_NAME":"STARLINK-35275","OBJECT_ID":"2025-216Y","EPOCH":"2026-01-04T05:38:50.461728","MEAN_MOTION":15.30182645,"ECCENTRICITY":0.00012578,"INCLINATION":53.1595,"RA_OF_ASC_NODE":272.3922,"ARG_OF_PERICENTER":69.6733,"MEAN_ANOMALY":290.4402,"EPHEMERIS_TYPE":0,"CLASSIFICATION_TYPE":"U","NORAD_CAT_ID":65756,"ELEMENT_SET_NO":999,"REV_AT_EPOCH":1667,"BSTAR":0.00012937915,"MEAN_MOTION_DOT":3.472e-5,"MEAN_MOTION_DDOT":0},{"OBJECT_NAME":"STARLINK-35211","OBJECT_ID":"2025-216Z","EPOCH":"2026-01-04T00:46:02.353152","MEAN_MOTION":15.30176641,"ECCENTRICITY":0.00010606,"INCLINATION":53.1579,"RA_OF_ASC_NODE":273.2568,"ARG_OF_PERICENTER":103.1454,"MEAN_ANOMALY":256.9666,"EPHEMERIS_TYPE":0,"CLASSIFICATION_TYPE":"U","NORAD_CAT_ID":65757,"ELEMENT_SET_NO":999,"REV_AT_EPOCH":1664,"BSTAR":-0.00048070964,"MEAN_MOTION_DOT":-0.00014558,"MEAN_MOTION_DDOT":0},{"OBJECT_NAME":"STARLINK-35313","OBJECT_ID":"2025-216AA","EPOCH":"2026-01-04T00:36:55.442016","MEAN_MOTION":15.30156741,"ECCENTRICITY":0.00014678,"INCLINATION":53.1585,"RA_OF_ASC_NODE":273.2168,"ARG_OF_PERICENTER":85.2083,"MEAN_ANOMALY":274.9086,"EPHEMERIS_TYPE":0,"CLASSIFICATION_TYPE":"U","NORAD_CAT_ID":65758,"ELEMENT_SET_NO":999,"REV_AT_EPOCH":1660,"BSTAR":0.00070868062,"MEAN_MOTION_DOT":0.0002066,"MEAN_MOTION_DDOT":0},{"OBJECT_NAME":"STARLINK-34692","OBJECT_ID":"2025-216AB","EPOCH":"2026-01-04T02:45:55.839168","MEAN_MOTION":15.30188294,"ECCENTRICITY":0.0001214,"INCLINATION":53.1596,"RA_OF_ASC_NODE":273.0669,"ARG_OF_PERICENTER":72.4133,"MEAN_ANOMALY":287.7,"EPHEMERIS_TYPE":0,"CLASSIFICATION_TYPE":"U","NORAD_CAT_ID":65759,"ELEMENT_SET_NO":999,"REV_AT_EPOCH":1661,"BSTAR":0.00018987166,"MEAN_MOTION_DOT":5.266e-5,"MEAN_MOTION_DDOT":0},{"OBJECT_NAME":"STARLINK-34890","OBJECT_ID":"2025-216AC","EPOCH":"2026-01-04T02:50:19.663296","MEAN_MOTION":15.30174758,"ECCENTRICITY":0.00013037,"INCLINATION":53.1602,"RA_OF_ASC_NODE":272.3739,"ARG_OF_PERICENTER":108.8252,"MEAN_ANOMALY":251.2891,"EPHEMERIS_TYPE":0,"CLASSIFICATION_TYPE":"U","NORAD_CAT_ID":65760,"ELEMENT_SET_NO":999,"REV_AT_EPOCH":1665,"BSTAR":0.0010712191,"MEAN_MOTION_DOT":0.00031477,"MEAN_MOTION_DDOT":0},{"OBJECT_NAME":"STARLINK-34889","OBJECT_ID":"2025-216AD","EPOCH":"2026-01-03T23:31:44.680800","MEAN_MOTION":15.30161928,"ECCENTRICITY":0.0001574,"INCLINATION":53.1573,"RA_OF_ASC_NODE":273.6528,"ARG_OF_PERICENTER":77.5121,"MEAN_ANOMALY":282.6056,"EPHEMERIS_TYPE":0,"CLASSIFICATION_TYPE":"U","NORAD_CAT_ID":65761,"ELEMENT_SET_NO":999,"REV_AT_EPOCH":1668,"BSTAR":0.0007267,"MEAN_MOTION_DOT":0.000212,"MEAN_MOTION_DDOT":0},{"OBJECT_NAME":"STARLINK-35330","OBJECT_ID":"2025-218A","EPOCH":"2026-01-04T05:07:16.636800","MEAN_MOTION":15.05648427,"ECCENTRICITY":0.00025976,"INCLINATION":97.6031,"RA_OF_ASC_NODE":229.3352,"ARG_OF_PERICENTER":91.9651,"MEAN_ANOMALY":268.1873,"EPHEMERIS_TYPE":0,"CLASSIFICATION_TYPE":"U","NORAD_CAT_ID":65791,"ELEMENT_SET_NO":999,"REV_AT_EPOCH":1526,"BSTAR":0.00040910644,"MEAN_MOTION_DOT":5.847e-5,"MEAN_MOTION_DDOT":0},{"OBJECT_NAME":"STARLINK-35373","OBJECT_ID":"2025-218B","EPOCH":"2026-01-04T04:19:24.673152","MEAN_MOTION":15.05701041,"ECCENTRICITY":0.00016871,"INCLINATION":97.6011,"RA_OF_ASC_NODE":229.3811,"ARG_OF_PERICENTER":87.9532,"MEAN_ANOMALY":272.1888,"EPHEMERIS_TYPE":0,"CLASSIFICATION_TYPE":"U","NORAD_CAT_ID":65792,"ELEMENT_SET_NO":999,"REV_AT_EPOCH":1526,"BSTAR":0.0021304741,"MEAN_MOTION_DOT":0.00030856,"MEAN_MOTION_DDOT":0},{"OBJECT_NAME":"STARLINK-35383","OBJECT_ID":"2025-218C","EPOCH":"2026-01-04T03:55:30.768384","MEAN_MOTION":15.056558,"ECCENTRICITY":0.00017481,"INCLINATION":97.6015,"RA_OF_ASC_NODE":229.4032,"ARG_OF_PERICENTER":83.9635,"MEAN_ANOMALY":276.1791,"EPHEMERIS_TYPE":0,"CLASSIFICATION_TYPE":"U","NORAD_CAT_ID":65793,"ELEMENT_SET_NO":999,"REV_AT_EPOCH":1526,"BSTAR":0.00062872657,"MEAN_MOTION_DOT":9.024e-5,"MEAN_MOTION_DDOT":0},{"OBJECT_NAME":"STARLINK-35378","OBJECT_ID":"2025-218D","EPOCH":"2026-01-04T04:55:19.030368","MEAN_MOTION":15.05651167,"ECCENTRICITY":0.00023387,"INCLINATION":97.6029,"RA_OF_ASC_NODE":229.3469,"ARG_OF_PERICENTER":90.4975,"MEAN_ANOMALY":269.652,"EPHEMERIS_TYPE":0,"CLASSIFICATION_TYPE":"U","NORAD_CAT_ID":65794,"ELEMENT_SET_NO":999,"REV_AT_EPOCH":1526,"BSTAR":0.00040386399,"MEAN_MOTION_DOT":5.772e-5,"MEAN_MOTION_DDOT":0},{"OBJECT_NAME":"STARLINK-35406","OBJECT_ID":"2025-218E","EPOCH":"2026-01-04T04:43:21.652032","MEAN_MOTION":15.05641866,"ECCENTRICITY":0.00026456,"INCLINATION":97.6016,"RA_OF_ASC_NODE":229.3596,"ARG_OF_PERICENTER":82.6663,"MEAN_ANOMALY":277.4865,"EPHEMERIS_TYPE":0,"CLASSIFICATION_TYPE":"U","NORAD_CAT_ID":65795,"ELEMENT_SET_NO":999,"REV_AT_EPOCH":1526,"BSTAR":0.00057194215,"MEAN_MOTION_DOT":8.2e-5,"MEAN_MOTION_DDOT":0},{"OBJECT_NAME":"STARLINK-35390","OBJECT_ID":"2025-218F","EPOCH":"2026-01-04T04:07:28.216704","MEAN_MOTION":15.05654086,"ECCENTRICITY":0.00010568,"INCLINATION":97.6014,"RA_OF_ASC_NODE":229.3921,"ARG_OF_PERICENTER":79.2613,"MEAN_ANOMALY":280.8733,"EPHEMERIS_TYPE":0,"CLASSIFICATION_TYPE":"U","NORAD_CAT_ID":65796,"ELEMENT_SET_NO":999,"REV_AT_EPOCH":1526,"BSTAR":0.00059029267,"MEAN_MOTION_DOT":8.468e-5,"MEAN_MOTION_DDOT":0},{"OBJECT_NAME":"STARLINK-35412","OBJECT_ID":"2025-218G","EPOCH":"2026-01-04T03:43:33.501504","MEAN_MOTION":15.05662641,"ECCENTRICITY":0.00022973,"INCLINATION":97.6029,"RA_OF_ASC_NODE":229.4155,"ARG_OF_PERICENTER":84.7797,"MEAN_ANOMALY":275.3692,"EPHEMERIS_TYPE":0,"CLASSIFICATION_TYPE":"U","NORAD_CAT_ID":65797,"ELEMENT_SET_NO":999,"REV_AT_EPOCH":1526,"BSTAR":-2.3910838e-5,"MEAN_MOTION_DOT":-4.06e-6,"MEAN_MOTION_DDOT":0},{"OBJECT_NAME":"STARLINK-35414","OBJECT_ID":"2025-218H","EPOCH":"2026-01-04T04:31:23.758752","MEAN_MOTION":15.05649532,"ECCENTRICITY":0.00022883,"INCLINATION":97.6011,"RA_OF_ASC_NODE":229.3702,"ARG_OF_PERICENTER":80.916,"MEAN_ANOMALY":279.2326,"EPHEMERIS_TYPE":0,"CLASSIFICATION_TYPE":"U","NORAD_CAT_ID":65798,"ELEMENT_SET_NO":999,"REV_AT_EPOCH":1526,"BSTAR":0.00030035155,"MEAN_MOTION_DOT":4.276e-5,"MEAN_MOTION_DDOT":0},{"OBJECT_NAME":"STARLINK-35357","OBJECT_ID":"2025-218J","EPOCH":"2026-01-04T04:39:22.041504","MEAN_MOTION":15.05653154,"ECCENTRICITY":0.0002051,"INCLINATION":97.6009,"RA_OF_ASC_NODE":229.3621,"ARG_OF_PERICENTER":90.2456,"MEAN_ANOMALY":269.9006,"EPHEMERIS_TYPE":0,"CLASSIFICATION_TYPE":"U","NORAD_CAT_ID":65799,"ELEMENT_SET_NO":999,"REV_AT_EPOCH":1526,"BSTAR":0.00048501305,"MEAN_MOTION_DOT":6.945e-5,"MEAN_MOTION_DDOT":0},{"OBJECT_NAME":"STARLINK-35300","OBJECT_ID":"2025-218K","EPOCH":"2026-01-04T05:03:17.469504","MEAN_MOTION":15.05642838,"ECCENTRICITY":0.00025283,"INCLINATION":97.6033,"RA_OF_ASC_NODE":229.3397,"ARG_OF_PERICENTER":81.3605,"MEAN_ANOMALY":278.7908,"EPHEMERIS_TYPE":0,"CLASSIFICATION_TYPE":"U","NORAD_CAT_ID":65800,"ELEMENT_SET_NO":999,"REV_AT_EPOCH":1526,"BSTAR":0.0006368655,"MEAN_MOTION_DOT":9.139e-5,"MEAN_MOTION_DDOT":0},{"OBJECT_NAME":"STARLINK-35296","OBJECT_ID":"2025-218L","EPOCH":"2026-01-04T03:51:31.618368","MEAN_MOTION":15.05658754,"ECCENTRICITY":0.00018401,"INCLINATION":97.602,"RA_OF_ASC_NODE":229.4082,"ARG_OF_PERICENTER":90.4694,"MEAN_ANOMALY":269.6744,"EPHEMERIS_TYPE":0,"CLASSIFICATION_TYPE":"U","NORAD_CAT_ID":65801,"ELEMENT_SET_NO":999,"REV_AT_EPOCH":1526,"BSTAR":0.00066497426,"MEAN_MOTION_DOT":9.549e-5,"MEAN_MOTION_DDOT":0},{"OBJECT_NAME":"STARLINK-34919","OBJECT_ID":"2025-218M","EPOCH":"2026-01-04T04:15:26.808768","MEAN_MOTION":15.05649013,"ECCENTRICITY":0.00017729,"INCLINATION":97.601,"RA_OF_ASC_NODE":229.3851,"ARG_OF_PERICENTER":88.4933,"MEAN_ANOMALY":271.6497,"EPHEMERIS_TYPE":0,"CLASSIFICATION_TYPE":"U","NORAD_CAT_ID":65802,"ELEMENT_SET_NO":999,"REV_AT_EPOCH":1526,"BSTAR":0.00023832241,"MEAN_MOTION_DOT":3.38e-5,"MEAN_MOTION_DDOT":0},{"OBJECT_NAME":"STARLINK-35286","OBJECT_ID":"2025-218N","EPOCH":"2026-01-04T04:59:18.122496","MEAN_MOTION":15.05652071,"ECCENTRICITY":0.00022422,"INCLINATION":97.6034,"RA_OF_ASC_NODE":229.3425,"ARG_OF_PERICENTER":83.2747,"MEAN_ANOMALY":276.8735,"EPHEMERIS_TYPE":0,"CLASSIFICATION_TYPE":"U","NORAD_CAT_ID":65803,"ELEMENT_SET_NO":999,"REV_AT_EPOCH":1526,"BSTAR":0.00039495694,"MEAN_MOTION_DOT":5.643e-5,"MEAN_MOTION_DDOT":0},{"OBJECT_NAME":"STARLINK-35266","OBJECT_ID":"2025-218P","EPOCH":"2026-01-04T04:51:19.924416","MEAN_MOTION":15.05647893,"ECCENTRICITY":0.00032808,"INCLINATION":97.6029,"RA_OF_ASC_NODE":229.3516,"ARG_OF_PERICENTER":77.0837,"MEAN_ANOMALY":283.0757,"EPHEMERIS_TYPE":0,"CLASSIFICATION_TYPE":"U","NORAD_CAT_ID":65804,"ELEMENT_SET_NO":999,"REV_AT_EPOCH":1526,"BSTAR":0.00029529536,"MEAN_MOTION_DOT":4.203e-5,"MEAN_MOTION_DDOT":0},{"OBJECT_NAME":"STARLINK-35273","OBJECT_ID":"2025-218Q","EPOCH":"2026-01-04T03:11:38.597568","MEAN_MOTION":15.05651033,"ECCENTRICITY":0.00028051,"INCLINATION":97.6028,"RA_OF_ASC_NODE":229.2902,"ARG_OF_PERICENTER":89.3066,"MEAN_ANOMALY":270.8482,"EPHEMERIS_TYPE":0,"CLASSIFICATION_TYPE":"U","NORAD_CAT_ID":65805,"ELEMENT_SET_NO":999,"REV_AT_EPOCH":1525,"BSTAR":0.00038659664,"MEAN_MOTION_DOT":5.522e-5,"MEAN_MOTION_DDOT":0}]
